{"type": "FeatureCollection", "features": [ {"type": "Feature", "properties": {"norad_id": 41556, "name": "ZIYUAN 3-02 (ZY 3-02)", "group": "resource", "lat": -42.01321045759808, "lon": -117.90783655823998, "alt_km": 501.4415787557891, "timestamp": "2025-12-20T18:51:31.375320+00:00", "meta": {"OBJECT_NAME": "ZIYUAN 3-02 (ZY 3-02)", "OBJECT_ID": "2016-033A", "EPOCH": "2025-12-20T14:43:34.940640", "MEAN_MOTION": 15.21158309, "ECCENTRICITY": 0.00110644, "INCLINATION": 97.4038, "RA_OF_ASC_NODE": 68.6499, "ARG_OF_PERICENTER": 216.6561, "MEAN_ANOMALY": 143.3918, "EPHEMERIS_TYPE": 0, "CLASSIFICATION_TYPE": "U", "NORAD_CAT_ID": 41556, "ELEMENT_SET_NO": 999, "REV_AT_EPOCH": 53083, "BSTAR": 0.00022067011, "MEAN_MOTION_DOT": 4.854e-05, "MEAN_MOTION_DDOT": 0}, "tle": {"line1": "1 41556U 16033A   25354.61359885  .00004854  00000+0  22067-3 0  9998", "line2": "2 41556  97.4038  68.6499 0011064 216.6561 143.3918 15.21158309530838"}}, "geometry": {"type": "Point", "coordinates": [-117.90783655823998, -42.01321045759808]}}, {"type": "Feature", "properties": {"norad_id": 41599, "name": "CARTOSAT-2C", "group": "resource", "lat": 72.38822340087745, "lon": -103.61053749583301, "alt_km": 498.54370245012615, "timestamp": "2025-12-20T18:51:31.375350+00:00", "meta": {"OBJECT_NAME": "CARTOSAT-2C", "OBJECT_ID": "2016-040A", "EPOCH": "2025-12-20T15:13:59.653344", "MEAN_MOTION": 15.19184999, "ECCENTRICITY": 0.00110671, "INCLINATION": 97.476, "RA_OF_ASC_NODE": 51.8043, "ARG_OF_PERICENTER": 38.0546, "MEAN_ANOMALY": 322.1469, "EPHEMERIS_TYPE": 0, "CLASSIFICATION_TYPE": "U", "NORAD_CAT_ID": 41599, "ELEMENT_SET_NO": 999, "REV_AT_EPOCH": 52660, "BSTAR": 0.00027115363, "MEAN_MOTION_DOT": 5.645e-05, "MEAN_MOTION_DDOT": 0}, "tle": {"line1": "1 41599U 16040A   25354.63471821  .00005645  00000+0  27115-3 0  9998", "line2": "2 41599  97.4760  51.8043 0011067  38.0546 322.1469 15.19184999526607"}}, "geometry": {"type": "Point", "coordinates": [-103.61053749583301, 72.38822340087745]}}, {"type": "Feature", "properties": {"norad_id": 41601, "name": "SKYSAT-C1", "group": "resource", "lat": -9.760584059346606, "lon": -149.86173315268684, "alt_km": 472.9068603393853, "timestamp": "2025-12-20T18:51:31.375365+00:00", "meta": {"OBJECT_NAME": "SKYSAT-C1", "OBJECT_ID": "2016-040C", "EPOCH": "2025-12-20T13:19:58.535040", "MEAN_MOTION": 15.32720909, "ECCENTRICITY": 0.00014701, "INCLINATION": 96.9811, "RA_OF_ASC_NODE": 31.1288, "ARG_OF_PERICENTER": 346.7095, "MEAN_ANOMALY": 13.4109, "EPHEMERIS_TYPE": 0, "CLASSIFICATION_TYPE": "U", "NORAD_CAT_ID": 41601, "ELEMENT_SET_NO": 999, "REV_AT_EPOCH": 53047, "BSTAR": 0.00018788513, "MEAN_MOTION_DOT": 5.865e-05, "MEAN_MOTION_DDOT": 0}, "tle": {"line1": "1 41601U 16040C   25354.55553860  .00005865  00000+0  18789-3 0  9998", "line2": "2 41601  96.9811  31.1288 0001470 346.7095  13.4109 15.32720909530472"}}, "geometry": {"type": "Point", "coordinates": [-149.86173315268684, -9.760584059346606]}}, {"type": "Feature", "properties": {"norad_id": 41603, "name": "LAPAN-A3", "group": "resource", "lat": -57.00756012990955, "lon": 3.186053251262677, "alt_km": 472.0213675454652, "timestamp": "2025-12-20T18:51:31.375376+00:00", "meta": {"OBJECT_NAME": "LAPAN-A3", "OBJECT_ID": "2016-040E", "EPOCH": "2025-12-20T14:24:21.308832", "MEAN_MOTION": 15.31609848, "ECCENTRICITY": 0.00089311, "INCLINATION": 97.1424, "RA_OF_ASC_NODE": 351.8706, "ARG_OF_PERICENTER": 301.9491, "MEAN_ANOMALY": 58.0882, "EPHEMERIS_TYPE": 0, "CLASSIFICATION_TYPE": "U", "NORAD_CAT_ID": 41603, "ELEMENT_SET_NO": 999, "REV_AT_EPOCH": 52746, "BSTAR": 9.1759708e-05, "MEAN_MOTION_DOT": 2.729e-05, "MEAN_MOTION_DDOT": 0}, "tle": {"line1": "1 41603U 16040E   25354.60024663  .00002729  00000+0  91760-4 0  9997", "line2": "2 41603  97.1424 351.8706 0008931 301.9491  58.0882 15.31609848527461"}}, "geometry": {"type": "Point", "coordinates": [3.186053251262677, -57.00756012990955]}}, {"type": "Feature", "properties": {"norad_id": 41604, "name": "BIROS", "group": "resource", "lat": 50.880034900930205, "lon": 17.781352066709886, "alt_km": 289.69984934358854, "timestamp": "2025-12-20T18:51:31.375387+00:00", "meta": {"OBJECT_NAME": "BIROS", "OBJECT_ID": "2016-040F", "EPOCH": "2025-12-20T12:36:42.537312", "MEAN_MOTION": 15.92640057, "ECCENTRICITY": 0.0003516, "INCLINATION": 97.0689, "RA_OF_ASC_NODE": 26.2866, "ARG_OF_PERICENTER": 133.472, "MEAN_ANOMALY": 226.6848, "EPHEMERIS_TYPE": 0, "CLASSIFICATION_TYPE": "U", "NORAD_CAT_ID": 41604, "ELEMENT_SET_NO": 999, "REV_AT_EPOCH": 52996, "BSTAR": 0.00051898279, "MEAN_MOTION_DOT": 0.00176018, "MEAN_MOTION_DDOT": 1.3507377e-05}, "tle": {"line1": "1 41604U 16040F   25354.52549233  .00176018  13507-4  51898-3 0  9995", "line2": "2 41604  97.0689  26.2866 0003516 133.4720 226.6848 15.92640057529967"}}, "geometry": {"type": "Point", "coordinates": [17.781352066709886, 50.880034900930205]}}, {"type": "Feature", "properties": {"norad_id": 41727, "name": "GAOFEN-3", "group": "resource", "lat": 15.246164566958385, "lon": -2.0596851076432294, "alt_km": 751.2934030753131, "timestamp": "2025-12-20T18:51:31.375397+00:00", "meta": {"OBJECT_NAME": "GAOFEN-3", "OBJECT_ID": "2016-049A", "EPOCH": "2025-12-20T15:27:26.330400", "MEAN_MOTION": 14.42215197, "ECCENTRICITY": 0.00012413, "INCLINATION": 98.4031, "RA_OF_ASC_NODE": 0.1098, "ARG_OF_PERICENTER": 56.804, "MEAN_ANOMALY": 303.3269, "EPHEMERIS_TYPE": 0, "CLASSIFICATION_TYPE": "U", "NORAD_CAT_ID": 41727, "ELEMENT_SET_NO": 999, "REV_AT_EPOCH": 49291, "BSTAR": 3.072448e-06, "MEAN_MOTION_DOT": -3.3e-07, "MEAN_MOTION_DDOT": 0}, "tle": {"line1": "1 41727U 16049A   25354.64405475 -.00000033  00000+0  30724-5 0  9992", "line2": "2 41727  98.4031   0.1098 0001241  56.8040 303.3269 14.42215197492914"}}, "geometry": {"type": "Point", "coordinates": [-2.0596851076432294, 15.246164566958385]}}, {"type": "Feature", "properties": {"norad_id": 41771, "name": "SKYSAT-C4", "group": "resource", "lat": 44.94482007204554, "lon": 12.604151915810037, "alt_km": 434.86514098239786, "timestamp": "2025-12-20T18:51:31.375407+00:00", "meta": {"OBJECT_NAME": "SKYSAT-C4", "OBJECT_ID": "2016-058B", "EPOCH": "2025-12-20T12:26:05.054784", "MEAN_MOTION": 15.42456679, "ECCENTRICITY": 0.00021748, "INCLINATION": 96.936, "RA_OF_ASC_NODE": 19.3283, "ARG_OF_PERICENTER": 127.8827, "MEAN_ANOMALY": 232.2618, "EPHEMERIS_TYPE": 0, "CLASSIFICATION_TYPE": "U", "NORAD_CAT_ID": 41771, "ELEMENT_SET_NO": 999, "REV_AT_EPOCH": 51787, "BSTAR": 0.00023302346, "MEAN_MOTION_DOT": 0.00010007, "MEAN_MOTION_DDOT": 0}, "tle": {"line1": "1 41771U 16058B   25354.51811406  .00010007  00000+0  23302-3 0  9995", "line2": "2 41771  96.9360  19.3283 0002174 127.8827 232.2618 15.42456679517871"}}, "geometry": {"type": "Point", "coordinates": [12.604151915810037, 44.94482007204554]}}, {"type": "Feature", "properties": {"norad_id": 41772, "name": "SKYSAT-C5", "group": "resource", "lat": 78.66630311722608, "lon": -0.08781288880867791, "alt_km": 459.1325169479769, "timestamp": "2025-12-20T18:51:31.375417+00:00", "meta": {"OBJECT_NAME": "SKYSAT-C5", "OBJECT_ID": "2016-058C", "EPOCH": "2025-12-20T13:48:34.292160", "MEAN_MOTION": 15.34006197, "ECCENTRICITY": 0.00037892, "INCLINATION": 97.0746, "RA_OF_ASC_NODE": 38, "ARG_OF_PERICENTER": 254.6411, "MEAN_ANOMALY": 105.4414, "EPHEMERIS_TYPE": 0, "CLASSIFICATION_TYPE": "U", "NORAD_CAT_ID": 41772, "ELEMENT_SET_NO": 999, "REV_AT_EPOCH": 51636, "BSTAR": 0.0001828781, "MEAN_MOTION_DOT": 5.943e-05, "MEAN_MOTION_DDOT": 0}, "tle": {"line1": "1 41772U 16058C   25354.57539690  .00005943  00000+0  18288-3 0  9994", "line2": "2 41772  97.0746  38.0000 0003789 254.6411 105.4414 15.34006197516363"}}, "geometry": {"type": "Point", "coordinates": [-0.08781288880867791, 78.66630311722608]}}, {"type": "Feature", "properties": {"norad_id": 41773, "name": "SKYSAT-C2", "group": "resource", "lat": -5.657654288880444, "lon": -161.72892146180234, "alt_km": 459.865149594435, "timestamp": "2025-12-20T18:51:31.375427+00:00", "meta": {"OBJECT_NAME": "SKYSAT-C2", "OBJECT_ID": "2016-058D", "EPOCH": "2025-12-20T00:52:16.860864", "MEAN_MOTION": 15.37425568, "ECCENTRICITY": 0.00034481, "INCLINATION": 97.035, "RA_OF_ASC_NODE": 18.2542, "ARG_OF_PERICENTER": 14.0685, "MEAN_ANOMALY": 346.0656, "EPHEMERIS_TYPE": 0, "CLASSIFICATION_TYPE": "U", "NORAD_CAT_ID": 41773, "ELEMENT_SET_NO": 999, "REV_AT_EPOCH": 51748, "BSTAR": 0.0002251688, "MEAN_MOTION_DOT": 8.187e-05, "MEAN_MOTION_DDOT": 0}, "tle": {"line1": "1 41773U 16058D   25354.03630626  .00008187  00000+0  22517-3 0  9990", "line2": "2 41773  97.0350  18.2542 0003448  14.0685 346.0656 15.37425568517484"}}, "geometry": {"type": "Point", "coordinates": [-161.72892146180234, -5.657654288880444]}}, {"type": "Feature", "properties": {"norad_id": 41774, "name": "SKYSAT-C3", "group": "resource", "lat": -41.44918322011749, "lon": -158.00719142096577, "alt_km": 439.61285434469664, "timestamp": "2025-12-20T18:51:31.375437+00:00", "meta": {"OBJECT_NAME": "SKYSAT-C3", "OBJECT_ID": "2016-058E", "EPOCH": "2025-12-20T08:34:23.687904", "MEAN_MOTION": 15.44652608, "ECCENTRICITY": 0.0001932, "INCLINATION": 96.9286, "RA_OF_ASC_NODE": 27.7493, "ARG_OF_PERICENTER": 107.595, "MEAN_ANOMALY": 252.5511, "EPHEMERIS_TYPE": 0, "CLASSIFICATION_TYPE": "U", "NORAD_CAT_ID": 41774, "ELEMENT_SET_NO": 999, "REV_AT_EPOCH": 51843, "BSTAR": 0.0002841356, "MEAN_MOTION_DOT": 0.00013163, "MEAN_MOTION_DDOT": 0}, "tle": {"line1": "1 41774U 16058E   25354.35721861  .00013163  00000+0  28414-3 0  9990", "line2": "2 41774  96.9286  27.7493 0001932 107.5950 252.5511 15.44652608518432"}}, "geometry": {"type": "Point", "coordinates": [-158.00719142096577, -41.44918322011749]}}]}